[{"OBJECT_NAME":"STARLINK-6348","OBJECT_ID":"2023-099AJ","EPOCH":"2026-03-09T11:31:28.762464","MEAN_MOTION":15.02537112,"ECCENTRICITY":0.0001371,"INCLINATION":43.003,"RA_OF_ASC_NODE":237.203,"ARG_OF_PERICENTER":262.258,"MEAN_ANOMALY":97.8107,"EPHEMERIS_TYPE":0,"CLASSIFICATION_TYPE":"U","NORAD_CAT_ID":57360,"ELEMENT_SET_NO":999,"REV_AT_EPOCH":14623,"BSTAR":2.5108671e-5,"MEAN_MOTION_DOT":1.36e-6,"MEAN_MOTION_DDOT":0},{"OBJECT_NAME":"CZ-2C DEB","OBJECT_ID":"2011-039F","EPOCH":"2026-03-09T17:45:14.166720","MEAN_MOTION":15.09482172,"ECCENTRICITY":0.00342492,"INCLINATION":97.9174,"RA_OF_ASC_NODE":359.6762,"ARG_OF_PERICENTER":347.2377,"MEAN_ANOMALY":72.5812,"EPHEMERIS_TYPE":0,"CLASSIFICATION_TYPE":"U","NORAD_CAT_ID":37770,"ELEMENT_SET_NO":999,"REV_AT_EPOCH":77853,"BSTAR":0.0024394871,"MEAN_MOTION_DOT":0.00039734,"MEAN_MOTION_DDOT":0}]
